email,title,category,owner_id,owner_name,street,city,postal_code,country,has_wheelchair_accessible_parking,address,website,phone,link,clean_link
contact@jaocreation.fr,JAO COMMUNICATION - Agence Web & Wordpress Lyon 6,Concepteur de sites Web,109890414426084503481,JAO COMMUNICATION - Agence Web & Wordpress Lyon 6,137 Rue Bugeaud,Lyon,69006,FR,Non,"137 Rue Bugeaud, 69006 Lyon",https://www.jaocreation.fr/,06 63 82 38 60,https://www.google.com/maps/place/JAO+COMMUNICATION+-+Agence+Web+%26+Wordpress+Lyon+6/data=!4m7!3m6!1s0x47f4ea8bfd7072db:0x5139327cae6d6a45!8m2!3d45.7672539!4d4.85587!16s%2Fg%2F1tdkr45y!19sChIJ23Jw_Yvq9EcRRWptrnwyOVE?authuser=0&hl=fr&rclk=1,https://www.google.com/maps/place/JAO+COMMUNICATION+-+Agence+Web+%26+Wordpress+Lyon+6/data=!4m7!3m6!1s0x47f4ea8bfd7072db:0x5139327cae6d6a45!8m2!3d45.7672539!4d4.85587!16s%2Fg%2F1tdkr45y!19sChIJ23Jw_Yvq9EcRRWptrnwyOVE
contact@agence-wam.fr,Agence WAM - Digital Brand Authority,Service de marketing Internet,110651168600656672145,Agence WAM - Digital Brand Authority,55 ter Av. René Cassin,Lyon,69009,FR,Oui,"55 ter Av. René Cassin, 69009 Lyon",https://agence-wam.fr/,04 78 14 50 09,https://www.google.com/maps/place/Agence+WAM+-+Digital+Brand+Authority/data=!4m7!3m6!1s0x47f4ea5e5a5bbee5:0xca90b0a91964d312!8m2!3d45.7684459!4d4.807248!16s%2Fg%2F12ht22dyg!19sChIJ5b5bWl7q9EcREtNkGamwkMo?authuser=0&hl=fr&rclk=1,https://www.google.com/maps/place/Agence+WAM+-+Digital+Brand+Authority/data=!4m7!3m6!1s0x47f4ea5e5a5bbee5:0xca90b0a91964d312!8m2!3d45.7684459!4d4.807248!16s%2Fg%2F12ht22dyg!19sChIJ5b5bWl7q9EcREtNkGamwkMo
hello@yumens.fr,Yumens,Service de marketing Internet,103612625736941544441,Yumens,8 Av. Tony Garnier,Lyon,69007,FR,Non,"8 Av. Tony Garnier, 69007 Lyon",https://hubs.la/Q03hYDX50,04 57 70 00 24,https://www.google.com/maps/place/Yumens/data=!4m7!3m6!1s0x47f4eb6aff49635b:0xde12f874c4ab076c!8m2!3d45.7307842!4d4.8233596!16s%2Fg%2F11jv70zrsm!19sChIJW2NJ_2rr9EcRbAerxHT4Et4?authuser=0&hl=fr&rclk=1,https://www.google.com/maps/place/Yumens/data=!4m7!3m6!1s0x47f4eb6aff49635b:0xde12f874c4ab076c!8m2!3d45.7307842!4d4.8233596!16s%2Fg%2F11jv70zrsm!19sChIJW2NJ_2rr9EcRbAerxHT4Et4
contact@bewizyu.com,BEWIZYU Lyon | Agence Digitale à impact positif,Concepteur de sites Web,,BEWIZYU Lyon | Agence Digitale à impact positif,30 Rue Victor Hugo,Lyon,69002,FR,Non,"30 Rue Victor Hugo, 69002 Lyon",https://www.bewizyu.com/contact,04 72 31 07 66,https://www.google.com/maps/place/BEWIZYU+Lyon+%7C+Agence+Digitale+%C3%A0+impact+positif/data=!4m7!3m6!1s0x47f4eb29ed1c2017:0x1fac6aa50d3e46d6!8m2!3d45.7544086!4d4.8297974!16s%2Fg%2F11h3fs3c2f!19sChIJFyAc7Snr9EcR1kY-DaVqrB8?authuser=0&hl=fr&rclk=1,https://www.google.com/maps/place/BEWIZYU+Lyon+%7C+Agence+Digitale+%C3%A0+impact+positif/data=!4m7!3m6!1s0x47f4eb29ed1c2017:0x1fac6aa50d3e46d6!8m2!3d45.7544086!4d4.8297974!16s%2Fg%2F11h3fs3c2f!19sChIJFyAc7Snr9EcR1kY-DaVqrB8
emmanuel.fauveau@webatheart.com,Web at Heart - Agence Web à Lyon,Concepteur de sites Web,104077743737672362186,Web at Heart - Agence Web à Lyon,45 Rue Vaubecour,Lyon,69002,FR,Non,"45 Rue Vaubecour, 69002 Lyon",https://www.webatheart.com/,06 64 10 88 76,https://www.google.com/maps/place/Web+at+Heart+-+Agence+Web+%C3%A0+Lyon/data=!4m7!3m6!1s0x47f4ebca8e440001:0xba41ed49e47c4888!8m2!3d45.751729!4d4.824895!16s%2Fg%2F11g8v3hy0g!19sChIJAQBEjsrr9EcRiEh85EntQbo?authuser=0&hl=fr&rclk=1,https://www.google.com/maps/place/Web+at+Heart+-+Agence+Web+%C3%A0+Lyon/data=!4m7!3m6!1s0x47f4ebca8e440001:0xba41ed49e47c4888!8m2!3d45.751729!4d4.824895!16s%2Fg%2F11g8v3hy0g!19sChIJAQBEjsrr9EcRiEh85EntQbo
contact@dioqa.com,Agence web DIOQA Lyon - Conception de site web / Développement / Référencement,Concepteur de sites Web,107222210949249416762,Agence web DIOQA Lyon - Conception de site web / Développement / Référencement,139 Rue Vendôme,Lyon,69006,FR,Oui,"139 Rue Vendôme, 69006 Lyon",https://www.dioqa.com/,09 72 46 14 54,https://www.google.com/maps/place/Agence+web+DIOQA+Lyon+-+Conception+de+site+web+%2F+D%C3%A9veloppement+%2F+R%C3%A9f%C3%A9rencement/data=!4m7!3m6!1s0x47f4ea83eb37372b:0xa69de8411d2b0307!8m2!3d45.764737!4d4.8463058!16s%2Fg%2F11f3s544p_!19sChIJKzc364Pq9EcRBwMrHUHonaY?authuser=0&hl=fr&rclk=1,https://www.google.com/maps/place/Agence+web+DIOQA+Lyon+-+Conception+de+site+web+%2F+D%C3%A9veloppement+%2F+R%C3%A9f%C3%A9rencement/data=!4m7!3m6!1s0x47f4ea83eb37372b:0xa69de8411d2b0307!8m2!3d45.764737!4d4.8463058!16s%2Fg%2F11f3s544p_!19sChIJKzc364Pq9EcRBwMrHUHonaY
contact@creation-site-webm.fr,Antoine WEBM - Création de sites internet et référencement - Agence Web,Concepteur de sites Web,107943689297267031279,Antoine WEBM - Création de sites internet et référencement - Agence Web,11 Rue Centrale,Craponne,69290,FR,Oui,"11 Rue Centrale, 69290 Craponne",http://creation-site-webm.fr/,06 51 22 71 18,https://www.google.com/maps/place/Antoine+WEBM+-+Cr%C3%A9ation+de+sites+internet+et+r%C3%A9f%C3%A9rencement+-+Agence+Web/data=!4m7!3m6!1s0x2d61104ba7b7b777:0xc5117bad2ab99304!8m2!3d45.7457055!4d4.7263265!16s%2Fg%2F11pcn_7pn9!19sChIJd7e3p0sQYS0RBJO5Kq17EcU?authuser=0&hl=fr&rclk=1,https://www.google.com/maps/place/Antoine+WEBM+-+Cr%C3%A9ation+de+sites+internet+et+r%C3%A9f%C3%A9rencement+-+Agence+Web/data=!4m7!3m6!1s0x2d61104ba7b7b777:0xc5117bad2ab99304!8m2!3d45.7457055!4d4.7263265!16s%2Fg%2F11pcn_7pn9!19sChIJd7e3p0sQYS0RBJO5Kq17EcU
hello@lkn-design.com,Agence digitale LK'N,Concepteur de sites Web,118243597142069576803,Agence digitale LK'N,54 Rue des Martyrs,Saint-Genis-Laval,69230,FR,Oui,"54 Rue des Martyrs, 69230 Saint-Genis-Laval",https://www.lkn-design.com/,06 52 84 88 83,https://www.google.com/maps/place/Agence+digitale+LK%27N/data=!4m7!3m6!1s0x47f4c19d3eb8ff7b:0x5ec337391f2d8916!8m2!3d45.6969486!4d4.7870509!16s%2Fg%2F119tn1sw_!19sChIJe_-4Pp3B9EcRFoktHzk3w14?authuser=0&hl=fr&rclk=1,https://www.google.com/maps/place/Agence+digitale+LK%27N/data=!4m7!3m6!1s0x47f4c19d3eb8ff7b:0x5ec337391f2d8916!8m2!3d45.6969486!4d4.7870509!16s%2Fg%2F119tn1sw_!19sChIJe_-4Pp3B9EcRFoktHzk3w14
hello@blackbirdee.fr,BLACKBIRDEE • Collectif de créations web humain & indépendant,Concepteur de sites Web,112743415580875552762,BLACKBIRDEE • Collectif de créations web humain & indépendant,5 Rue Capitaine Robert Cluzan,Lyon,69007,FR,Non,"5 Rue Capitaine Robert Cluzan, 69007 Lyon",https://blackbirdee.fr/,06 63 09 98 89,https://www.google.com/maps/place/BLACKBIRDEE+%E2%80%A2+Collectif+de+cr%C3%A9ations+web+humain+%26+ind%C3%A9pendant/data=!4m7!3m6!1s0x47f4ea6962500001:0x43fd4dc936b87692!8m2!3d45.7526078!4d4.8431068!16s%2Fg%2F11h4mwcxtz!19sChIJAQBQYmnq9EcRkna4NslN_UM?authuser=0&hl=fr&rclk=1,https://www.google.com/maps/place/BLACKBIRDEE+%E2%80%A2+Collectif+de+cr%C3%A9ations+web+humain+%26+ind%C3%A9pendant/data=!4m7!3m6!1s0x47f4ea6962500001:0x43fd4dc936b87692!8m2!3d45.7526078!4d4.8431068!16s%2Fg%2F11h4mwcxtz!19sChIJAQBQYmnq9EcRkna4NslN_UM
stephane.senot@linkeo.com,Agence Web Linkeo Clermont-Ferrand,Concepteur de sites Web,103076654751527796596,Agence Web Linkeo Clermont-Ferrand,3 All. Pierre de Fermat,Aubière,63170,FR,Oui,"3 All. Pierre de Fermat, 63170 Aubière",https://www.linkeo-clermont.com/,09 74 56 63 63,https://www.google.com/maps/place/Agence+Web+Linkeo+Clermont-Ferrand/data=!4m7!3m6!1s0x47f71c48418184dd:0x24e194ca57fdc31d!8m2!3d45.7603678!4d3.1347091!16s%2Fg%2F11f1pfr92j!19sChIJ3YSBQUgc90cRHcP9V8qU4SQ?authuser=0&hl=fr&rclk=1,https://www.google.com/maps/place/Agence+Web+Linkeo+Clermont-Ferrand/data=!4m7!3m6!1s0x47f71c48418184dd:0x24e194ca57fdc31d!8m2!3d45.7603678!4d3.1347091!16s%2Fg%2F11f1pfr92j!19sChIJ3YSBQUgc90cRHcP9V8qU4SQ
contact@helloroadmap.com,Roadmap • Agence digitale et marketing (ex Je sors en ville),Agence de marketing,100762527101070260778,Roadmap • Agence digitale et marketing (ex Je sors en ville),4 Pl. Amédée Bonnet,Lyon,69002,FR,Non,"4 Pl. Amédée Bonnet, 69002 Lyon",https://helloroadmap.com/,06 78 47 68 29,https://www.google.com/maps/place/Roadmap+%E2%80%A2+Agence+digitale+et+marketing+%28ex+Je+sors+en+ville%29/data=!4m7!3m6!1s0x47f4ebb2c0d13b27:0xeee4430165b8c301!8m2!3d45.7585142!4d4.8366857!16s%2Fg%2F11b723s94g!19sChIJJzvRwLLr9EcRAcO4ZQFD5O4?authuser=0&hl=fr&rclk=1,https://www.google.com/maps/place/Roadmap+%E2%80%A2+Agence+digitale+et+marketing+%28ex+Je+sors+en+ville%29/data=!4m7!3m6!1s0x47f4ebb2c0d13b27:0xeee4430165b8c301!8m2!3d45.7585142!4d4.8366857!16s%2Fg%2F11b723s94g!19sChIJJzvRwLLr9EcRAcO4ZQFD5O4
codecircle.pro@gmail.com,Code Circle - Agence web WordPress sur Lyon,Concepteur de sites Web,106372656794614588094,Code Circle - Agence web WordPress sur Lyon,70 Bd Marius Vivier Merle,Lyon,69003,FR,Non,"70 Bd Marius Vivier Merle, 69003 Lyon",https://codecircle.fr/,06 36 93 94 53,https://www.google.com/maps/place/Code+Circle+-+Agence+web+WordPress+sur+Lyon/data=!4m7!3m6!1s0x47f4c1f76654d537:0xa166f2b13943c981!8m2!3d45.7567967!4d4.8585881!16s%2Fg%2F11fm6pz859!19sChIJN9VUZvfB9EcRgclDObHyZqE?authuser=0&hl=fr&rclk=1,https://www.google.com/maps/place/Code+Circle+-+Agence+web+WordPress+sur+Lyon/data=!4m7!3m6!1s0x47f4c1f76654d537:0xa166f2b13943c981!8m2!3d45.7567967!4d4.8585881!16s%2Fg%2F11fm6pz859!19sChIJN9VUZvfB9EcRgclDObHyZqE
contact@astronaut-agency.com,Astronaut Agency - Agence Web - Saint Prim,Concepteur de sites Web,111023260757290815678,Astronaut Agency - Agence Web - Saint Prim,21 Rue du Commandant Fuzier,Lyon,69003,FR,Non,"21 Rue du Commandant Fuzier, 69003 Lyon",https://www.astronaut-agency.com/,06 51 49 21 29,https://www.google.com/maps/place/Astronaut+Agency+-+Agence+Web+-+Saint+Prim/data=!4m7!3m6!1s0xa1e14b74e736089:0x1a8428666f345c77!8m2!3d45.7545876!4d4.8455161!16s%2Fg%2F11pv3s7ls4!19sChIJiWBzTrcUHgoRd1w0b2YohBo?authuser=0&hl=fr&rclk=1,https://www.google.com/maps/place/Astronaut+Agency+-+Agence+Web+-+Saint+Prim/data=!4m7!3m6!1s0xa1e14b74e736089:0x1a8428666f345c77!8m2!3d45.7545876!4d4.8455161!16s%2Fg%2F11pv3s7ls4!19sChIJiWBzTrcUHgoRd1w0b2YohBo
contact@akdconception.com,AKD CONCEPTION - Agence Web & Référencement SEO,Agence de marketing,103444885401667679472,AKD CONCEPTION - Agence Web & Référencement SEO,,,,,Non,,http://www.akdconception.com/,,https://www.google.com/maps/place/AKD+CONCEPTION+-+Agence+Web+%26+R%C3%A9f%C3%A9rencement+SEO/data=!4m7!3m6!1s0x47f4c15772088c71:0xa541e8bf45696417!8m2!3d30.6959409!4d-49.8171262!16s%2Fg%2F11lfzxny5p!19sChIJcYwIclfB9EcRF2RpRb_oQaU?authuser=0&hl=fr&rclk=1,https://www.google.com/maps/place/AKD+CONCEPTION+-+Agence+Web+%26+R%C3%A9f%C3%A9rencement+SEO/data=!4m7!3m6!1s0x47f4c15772088c71:0xa541e8bf45696417!8m2!3d30.6959409!4d-49.8171262!16s%2Fg%2F11lfzxny5p!19sChIJcYwIclfB9EcRF2RpRb_oQaU
contact@digitify.fr,"DIGITIFY Agence Web Lyon : Développement site internet, E-commerce, Référencement SEO & web design",Concepteur de sites Web,107020065802464049408,"DIGITIFY Agence Web Lyon : Développement site internet, E-commerce, Référencement SEO & web design",333 A Rue du Doyen Georges Chapas,Lyon,69009,FR,Oui,"333 A Rue du Doyen Georges Chapas, 69009 Lyon",http://www.digitify.fr/,07 66 52 54 57,"https://www.google.com/maps/place/DIGITIFY+Agence+Web+Lyon+:+D%C3%A9veloppement+site+internet,+E-commerce,+R%C3%A9f%C3%A9rencement+SEO+%26+web+design/data=!4m7!3m6!1s0x47f4ebed648d32bb:0x441e2d799b66663a!8m2!3d45.7904921!4d4.7999847!16s%2Fg%2F11pq3hx6xv!19sChIJuzKNZO3r9EcROmZmm3ktHkQ?authuser=0&hl=fr&rclk=1","https://www.google.com/maps/place/DIGITIFY+Agence+Web+Lyon+:+D%C3%A9veloppement+site+internet,+E-commerce,+R%C3%A9f%C3%A9rencement+SEO+%26+web+design/data=!4m7!3m6!1s0x47f4ebed648d32bb:0x441e2d799b66663a!8m2!3d45.7904921!4d4.7999847!16s%2Fg%2F11pq3hx6xv!19sChIJuzKNZO3r9EcROmZmm3ktHkQ"
contact@digi-zen.fr,Création site internet Lyon - Agence Digi-zen,Concepteur de sites Web,113027536549337540123,Création site internet Lyon - Agence Digi-zen,19 Rue Père Chevrier,Lyon,69007,FR,Non,"19 Rue Père Chevrier, 69007 Lyon",https://digi-zen.fr/,06 46 00 32 74,https://www.google.com/maps/place/Cr%C3%A9ation+site+internet+Lyon+-+Agence+Digi-zen/data=!4m7!3m6!1s0x65e2ea858d9955cb:0xaeb89fa59f9ee60f!8m2!3d45.7496869!4d4.8432584!16s%2Fg%2F11wmms_tzr!19sChIJy1WZjYXq4mURD-aen6WfuK4?authuser=0&hl=fr&rclk=1,https://www.google.com/maps/place/Cr%C3%A9ation+site+internet+Lyon+-+Agence+Digi-zen/data=!4m7!3m6!1s0x65e2ea858d9955cb:0xaeb89fa59f9ee60f!8m2!3d45.7496869!4d4.8432584!16s%2Fg%2F11wmms_tzr!19sChIJy1WZjYXq4mURD-aen6WfuK4
remiclavel@hotmail.com,Rémi CLAVEL,Concepteur de sites Web,108709345135732069621,Rémi CLAVEL,8 Rue Rameau,Clermont-Ferrand,63000,FR,Non,"8 Rue Rameau, 63000 Clermont-Ferrand",https://remiclavel.fr/,,https://www.google.com/maps/place/R%C3%A9mi+CLAVEL/data=!4m7!3m6!1s0x47f71bd15564879f:0xe666e1d8c102bd07!8m2!3d45.7759211!4d3.0778398!16s%2Fg%2F11qyl8mnhx!19sChIJn4dkVdEb90cRB70CwdjhZuY?authuser=0&hl=fr&rclk=1,https://www.google.com/maps/place/R%C3%A9mi+CLAVEL/data=!4m7!3m6!1s0x47f71bd15564879f:0xe666e1d8c102bd07!8m2!3d45.7759211!4d3.0778398!16s%2Fg%2F11qyl8mnhx!19sChIJn4dkVdEb90cRB70CwdjhZuY
accueil@letacommunication.fr,L&A Communication Agence Web et Print,Concepteur de sites Web,112190252439767319651,L&A Communication Agence Web et Print,183 Av. Félix Faure,Lyon,69003,FR,Non,"183 Av. Félix Faure, 69003 Lyon",https://letacommunication.fr/,07 68 74 52 25,https://www.google.com/maps/place/L%26A+Communication+Agence+Web+et+Print/data=!4m7!3m6!1s0x47f4eb8617beda3b:0xd0dd361488d8dd64!8m2!3d45.7550338!4d4.8693035!16s%2Fg%2F11fpj76k0y!19sChIJO9q-F4br9EcRZN3YiBQ23dA?authuser=0&hl=fr&rclk=1,https://www.google.com/maps/place/L%26A+Communication+Agence+Web+et+Print/data=!4m7!3m6!1s0x47f4eb8617beda3b:0xd0dd361488d8dd64!8m2!3d45.7550338!4d4.8693035!16s%2Fg%2F11fpj76k0y!19sChIJO9q-F4br9EcRZN3YiBQ23dA
contact@lacooperativedesinternets.fr,La Coopérative des Internets - Agence digitale responsable,Concepteur de sites Web,114385779282317072610,La Coopérative des Internets - Agence digitale responsable,10 Rue Jangot,Lyon,69007,FR,Non,"10 Rue Jangot, 69007 Lyon",https://www.lacooperativedesinternets.fr/,04 28 29 73 12,https://www.google.com/maps/place/La+Coop%C3%A9rative+des+Internets+-+Agence+digitale+responsable/data=!4m7!3m6!1s0x47f4eb61fa69ccab:0x6eaff086a59f2bb6!8m2!3d45.7516494!4d4.8424032!16s%2Fg%2F11p4p_9vld!19sChIJq8xp-mHr9EcRtiufpYbwr24?authuser=0&hl=fr&rclk=1,https://www.google.com/maps/place/La+Coop%C3%A9rative+des+Internets+-+Agence+digitale+responsable/data=!4m7!3m6!1s0x47f4eb61fa69ccab:0x6eaff086a59f2bb6!8m2!3d45.7516494!4d4.8424032!16s%2Fg%2F11p4p_9vld!19sChIJq8xp-mHr9EcRtiufpYbwr24
contact@grainedepub.fr,Graine de Pub,Agence de marketing,113679394543682049294,Graine de Pub,1 Rue de la République,Lyon,69001,FR,Non,"1 Rue de la République, 69001 Lyon",https://www.grainedepub.com/,,https://www.google.com/maps/place/Graine+de+Pub/data=!4m7!3m6!1s0x47f4eaf9385a8fd9:0x1ce7fbb3f304b616!8m2!3d45.767326!4d4.836291!16s%2Fg%2F11ggz9dzlv!19sChIJ2Y9aOPnq9EcRFrYE87P75xw?authuser=0&hl=fr&rclk=1,https://www.google.com/maps/place/Graine+de+Pub/data=!4m7!3m6!1s0x47f4eaf9385a8fd9:0x1ce7fbb3f304b616!8m2!3d45.767326!4d4.836291!16s%2Fg%2F11ggz9dzlv!19sChIJ2Y9aOPnq9EcRFrYE87P75xw
contact@novadigital.fr,Novadigital,Concepteur de sites Web,102577492278515171541,Novadigital,78 Rue Saint-Pierre de Vaise,Lyon,69009,FR,Non,"78 Rue Saint-Pierre de Vaise, 69009 Lyon",https://www.novadigital.fr/,06 42 77 23 85,https://www.google.com/maps/place/Novadigital/data=!4m7!3m6!1s0x47f4eb5cf916f4d5:0x93cb4a4a613a2ab6!8m2!3d45.7711567!4d4.8026447!16s%2Fg%2F11ngpgg8h5!19sChIJ1fQW-Vzr9EcRtio6YUpKy5M?authuser=0&hl=fr&rclk=1,https://www.google.com/maps/place/Novadigital/data=!4m7!3m6!1s0x47f4eb5cf916f4d5:0x93cb4a4a613a2ab6!8m2!3d45.7711567!4d4.8026447!16s%2Fg%2F11ngpgg8h5!19sChIJ1fQW-Vzr9EcRtio6YUpKy5M
odsagenceweb@opendataservices.fr,ODS Agence Web,Concepteur de sites Web,112091873980035151189,ODS Agence Web,,,,,Non,,https://odsagenceweb.fr/,06 81 45 04 49,https://www.google.com/maps/place/ODS+Agence+Web/data=!4m7!3m6!1s0x47f4ebd0e61dd3a7:0x8827addeff7e53e3!8m2!3d30.6959409!4d-49.8171262!16s%2Fg%2F11gnp3y45f!19sChIJp9Md5tDr9EcR41N-_96tJ4g?authuser=0&hl=fr&rclk=1,https://www.google.com/maps/place/ODS+Agence+Web/data=!4m7!3m6!1s0x47f4ebd0e61dd3a7:0x8827addeff7e53e3!8m2!3d30.6959409!4d-49.8171262!16s%2Fg%2F11gnp3y45f!19sChIJp9Md5tDr9EcR41N-_96tJ4g
contact@agence-kn.fr,"Agence KN, agence web WordPress",Concepteur de sites Web,110239317185634802206,"Agence KN, agence web WordPress",169 Av. Charles de Gaulle,Tassin-la-Demi-Lune,69160,FR,Oui,"169 Av. Charles de Gaulle, 69160 Tassin-la-Demi-Lune",https://www.agence-kn.fr/,04 74 70 90 19,"https://www.google.com/maps/place/Agence+KN,+agence+web+WordPress/data=!4m7!3m6!1s0x47f4ec7ad1b3a0ff:0xef355e39f6804fc4!8m2!3d45.7586026!4d4.7759802!16s%2Fg%2F1jkxm0cwz!19sChIJ_6Cz0Xrs9EcRxE-A9jleNe8?authuser=0&hl=fr&rclk=1","https://www.google.com/maps/place/Agence+KN,+agence+web+WordPress/data=!4m7!3m6!1s0x47f4ec7ad1b3a0ff:0xef355e39f6804fc4!8m2!3d45.7586026!4d4.7759802!16s%2Fg%2F1jkxm0cwz!19sChIJ_6Cz0Xrs9EcRxE-A9jleNe8"
hello@web-id.fr,WEB-ID Agence digitale Web & Mobile - Développement sur-mesure | Certifiée Laravel,Concepteur de sites Web,102606659931801869107,WEB-ID Agence digitale Web & Mobile - Développement sur-mesure | Certifiée Laravel,5 Imp. Morel,Lyon,69003,FR,Oui,"5 Imp. Morel, 69003 Lyon",http://www.web-id.fr/,04 65 84 35 34,https://www.google.com/maps/place/WEB-ID+Agence+digitale+Web+%26+Mobile+-+D%C3%A9veloppement+sur-mesure+%7C+Certifi%C3%A9e+Laravel/data=!4m7!3m6!1s0x47f4eaf87d117f1b:0xb97ae0139ad4e53e!8m2!3d45.7532877!4d4.8795168!16s%2Fg%2F11g6pn_jh4!19sChIJG38Rffjq9EcRPuXUmhPgerk?authuser=0&hl=fr&rclk=1,https://www.google.com/maps/place/WEB-ID+Agence+digitale+Web+%26+Mobile+-+D%C3%A9veloppement+sur-mesure+%7C+Certifi%C3%A9e+Laravel/data=!4m7!3m6!1s0x47f4eaf87d117f1b:0xb97ae0139ad4e53e!8m2!3d45.7532877!4d4.8795168!16s%2Fg%2F11g6pn_jh4!19sChIJG38Rffjq9EcRPuXUmhPgerk
postmaster@69services.fr,Agence Web 69s service internet SEO,Concepteur de sites Web,104758522781839824492,Agence Web 69s service internet SEO,21 Bd Honoré de Balzac,Villeurbanne,69100,FR,Non,"21 Bd Honoré de Balzac, 69100 Villeurbanne",http://www.69services.fr/,06 33 79 48 92,https://www.google.com/maps/place/Agence+Web+69s+service+internet+SEO/data=!4m7!3m6!1s0x47f4ea73f9181613:0x15d314bb09817996!8m2!3d45.7556303!4d4.8885377!16s%2Fg%2F1pv19jg3y!19sChIJExYY-XPq9EcRlnmBCbsU0xU?authuser=0&hl=fr&rclk=1,https://www.google.com/maps/place/Agence+Web+69s+service+internet+SEO/data=!4m7!3m6!1s0x47f4ea73f9181613:0x15d314bb09817996!8m2!3d45.7556303!4d4.8885377!16s%2Fg%2F1pv19jg3y!19sChIJExYY-XPq9EcRlnmBCbsU0xU
contact@tsukidev.fr,"Tsuki Dev : Agence web Lyon - Expert Wordpress, Prestashop, Symfony, SEO",Concepteur de sites Web,100972265692665821079,"Tsuki Dev : Agence web Lyon - Expert Wordpress, Prestashop, Symfony, SEO",110 Av. Barthélémy Buyer Espace 110,Lyon,69009,FR,Non,"110 Av. Barthélémy Buyer Espace 110, 69009 Lyon",https://tsukidev.fr/,07 66 75 39 98,"https://www.google.com/maps/place/Tsuki+Dev+:+Agence+web+Lyon+-+Expert+Wordpress,+Prestashop,+Symfony,+SEO/data=!4m7!3m6!1s0x47f4ebfd8de72a0d:0xda6b77c4aaf82509!8m2!3d45.763108!4d4.8017104!16s%2Fg%2F11wth56gcw!19sChIJDSrnjf3r9EcRCSX4qsR3a9o?authuser=0&hl=fr&rclk=1","https://www.google.com/maps/place/Tsuki+Dev+:+Agence+web+Lyon+-+Expert+Wordpress,+Prestashop,+Symfony,+SEO/data=!4m7!3m6!1s0x47f4ebfd8de72a0d:0xda6b77c4aaf82509!8m2!3d45.763108!4d4.8017104!16s%2Fg%2F11wth56gcw!19sChIJDSrnjf3r9EcRCSX4qsR3a9o"
jean.dupont@gmail.com,Agence Vingt Deux,Agence de marketing,118224443760591833591,Agence Vingt Deux,46 Av. de Cournon,Aubière,63170,FR,Oui,"46 Av. de Cournon, 63170 Aubière",https://www.vingtdeux.fr/,04 44 05 00 22,https://www.google.com/maps/place/Agence+Vingt+Deux/data=!4m7!3m6!1s0x47f71dd9057f4eeb:0x9febc28e8a79f18b!8m2!3d45.7530561!4d3.1379041!16s%2Fg%2F11hzdccpfh!19sChIJ605_Bdkd90cRi_F5io7C658?authuser=0&hl=fr&rclk=1,https://www.google.com/maps/place/Agence+Vingt+Deux/data=!4m7!3m6!1s0x47f71dd9057f4eeb:0x9febc28e8a79f18b!8m2!3d45.7530561!4d3.1379041!16s%2Fg%2F11hzdccpfh!19sChIJ605_Bdkd90cRi_F5io7C658
dorian@homweb.fr,Homweb - Agence Web Créative,Concepteur de sites Web,117001754352588053102,Homweb - Agence Web Créative,25 Rue de Bourgogne,Lyon,69009,FR,Non,"25 Rue de Bourgogne, 69009 Lyon",http://homweb.fr/,07 81 81 55 34,https://www.google.com/maps/place/Homweb+-+Agence+Web+Cr%C3%A9ative/data=!4m7!3m6!1s0xaff3bc3157f326d5:0x629f05dc7be0950a!8m2!3d45.7776621!4d4.8030493!16s%2Fg%2F11s96fsh11!19sChIJ1SbzVzG8868RCpXge9wFn2I?authuser=0&hl=fr&rclk=1,https://www.google.com/maps/place/Homweb+-+Agence+Web+Cr%C3%A9ative/data=!4m7!3m6!1s0xaff3bc3157f326d5:0x629f05dc7be0950a!8m2!3d45.7776621!4d4.8030493!16s%2Fg%2F11s96fsh11!19sChIJ1SbzVzG8868RCpXge9wFn2I
contact@homweb.fr,Homweb - Agence Web Créative,Concepteur de sites Web,117001754352588053102,Homweb - Agence Web Créative,25 Rue de Bourgogne,Lyon,69009,FR,Non,"25 Rue de Bourgogne, 69009 Lyon",http://homweb.fr/,07 81 81 55 34,https://www.google.com/maps/place/Homweb+-+Agence+Web+Cr%C3%A9ative/data=!4m7!3m6!1s0xaff3bc3157f326d5:0x629f05dc7be0950a!8m2!3d45.7776621!4d4.8030493!16s%2Fg%2F11s96fsh11!19sChIJ1SbzVzG8868RCpXge9wFn2I?authuser=0&hl=fr&rclk=1,https://www.google.com/maps/place/Homweb+-+Agence+Web+Cr%C3%A9ative/data=!4m7!3m6!1s0xaff3bc3157f326d5:0x629f05dc7be0950a!8m2!3d45.7776621!4d4.8030493!16s%2Fg%2F11s96fsh11!19sChIJ1SbzVzG8868RCpXge9wFn2I
paris@novius.com,Agence web Lyon NOVIUS,Concepteur de sites Web,110750109372936996919,Agence web Lyon NOVIUS,55 Av. Galline,Villeurbanne,69100,FR,Oui,"55 Av. Galline, 69100 Villeurbanne",https://www.novius.com/,04 27 46 20 00,https://www.google.com/maps/place/Agence+web+Lyon+NOVIUS/data=!4m7!3m6!1s0x47f4ea9be4736227:0x988db061ec044f2d!8m2!3d45.7764071!4d4.8683044!16s%2Fg%2F1td9vgh0!19sChIJJ2Jz5Jvq9EcRLU8E7GGwjZg?authuser=0&hl=fr&rclk=1,https://www.google.com/maps/place/Agence+web+Lyon+NOVIUS/data=!4m7!3m6!1s0x47f4ea9be4736227:0x988db061ec044f2d!8m2!3d45.7764071!4d4.8683044!16s%2Fg%2F1td9vgh0!19sChIJJ2Jz5Jvq9EcRLU8E7GGwjZg
lyon@novius.com,Agence web Lyon NOVIUS,Concepteur de sites Web,110750109372936996919,Agence web Lyon NOVIUS,55 Av. Galline,Villeurbanne,69100,FR,Oui,"55 Av. Galline, 69100 Villeurbanne",https://www.novius.com/,04 27 46 20 00,https://www.google.com/maps/place/Agence+web+Lyon+NOVIUS/data=!4m7!3m6!1s0x47f4ea9be4736227:0x988db061ec044f2d!8m2!3d45.7764071!4d4.8683044!16s%2Fg%2F1td9vgh0!19sChIJJ2Jz5Jvq9EcRLU8E7GGwjZg?authuser=0&hl=fr&rclk=1,https://www.google.com/maps/place/Agence+web+Lyon+NOVIUS/data=!4m7!3m6!1s0x47f4ea9be4736227:0x988db061ec044f2d!8m2!3d45.7764071!4d4.8683044!16s%2Fg%2F1td9vgh0!19sChIJJ2Jz5Jvq9EcRLU8E7GGwjZg
annecy@novius.com,Agence web Lyon NOVIUS,Concepteur de sites Web,110750109372936996919,Agence web Lyon NOVIUS,55 Av. Galline,Villeurbanne,69100,FR,Oui,"55 Av. Galline, 69100 Villeurbanne",https://www.novius.com/,04 27 46 20 00,https://www.google.com/maps/place/Agence+web+Lyon+NOVIUS/data=!4m7!3m6!1s0x47f4ea9be4736227:0x988db061ec044f2d!8m2!3d45.7764071!4d4.8683044!16s%2Fg%2F1td9vgh0!19sChIJJ2Jz5Jvq9EcRLU8E7GGwjZg?authuser=0&hl=fr&rclk=1,https://www.google.com/maps/place/Agence+web+Lyon+NOVIUS/data=!4m7!3m6!1s0x47f4ea9be4736227:0x988db061ec044f2d!8m2!3d45.7764071!4d4.8683044!16s%2Fg%2F1td9vgh0!19sChIJJ2Jz5Jvq9EcRLU8E7GGwjZg
contact@swebetech.com,Swebetech - Agence Web & Inform'Éthique,Concepteur de sites Web,116441776200150617398,Swebetech - Agence Web & Inform'Éthique,,,,,Non,,https://swebetech.com/,04 81 91 16 11,https://www.google.com/maps/place/Swebetech+-+Agence+Web+%26+Inform%27%C3%89thique/data=!4m7!3m6!1s0x8b5520214c788cf7:0x9773c61dc624510c!8m2!3d45.7579507!4d4.8351239!16s%2Fg%2F11sd1m2bnb!19sChIJ94x4TCEgVYsRDFEkxh3Gc5c?authuser=0&hl=fr&rclk=1,https://www.google.com/maps/place/Swebetech+-+Agence+Web+%26+Inform%27%C3%89thique/data=!4m7!3m6!1s0x8b5520214c788cf7:0x9773c61dc624510c!8m2!3d45.7579507!4d4.8351239!16s%2Fg%2F11sd1m2bnb!19sChIJ94x4TCEgVYsRDFEkxh3Gc5c
contact@webinsighters.com,Webinsighters - Agence web,Concepteur de sites Web,104517174590831836136,Webinsighters - Agence web,74 Rue Eugène Pons,Lyon,69004,FR,Oui,"74 Rue Eugène Pons, 69004 Lyon",http://webinsighters.com/,07 67 00 86 89,https://www.google.com/maps/place/Webinsighters+-+Agence+web/data=!4m7!3m6!1s0x47f4eba3da07ca9d:0x8662a48b38d17e53!8m2!3d45.7792164!4d4.8403882!16s%2Fg%2F11sffbqkj_!19sChIJncoH2qPr9EcRU37ROIukYoY?authuser=0&hl=fr&rclk=1,https://www.google.com/maps/place/Webinsighters+-+Agence+web/data=!4m7!3m6!1s0x47f4eba3da07ca9d:0x8662a48b38d17e53!8m2!3d45.7792164!4d4.8403882!16s%2Fg%2F11sffbqkj_!19sChIJncoH2qPr9EcRU37ROIukYoY
contact@greentic.net,Greentic,Concepteur de sites Web,114616078204421838296,Greentic,5 Rue de Castries,Lyon,69002,FR,Non,"5 Rue de Castries, 69002 Lyon",http://www.greentic.net/,04 28 29 02 38,https://www.google.com/maps/place/Greentic/data=!4m7!3m6!1s0x47f4eb0dcebfd393:0xcbcdcab2f70819d6!8m2!3d45.752946!4d4.8259721!16s%2Fg%2F1wc479s7!19sChIJk9O_zg3r9EcR1hkI97LKzcs?authuser=0&hl=fr&rclk=1,https://www.google.com/maps/place/Greentic/data=!4m7!3m6!1s0x47f4eb0dcebfd393:0xcbcdcab2f70819d6!8m2!3d45.752946!4d4.8259721!16s%2Fg%2F1wc479s7!19sChIJk9O_zg3r9EcR1hkI97LKzcs
contact@monagenceduweb.com,MON AGENCE DU WEB,Agence de marketing,104704189754270202677,MON AGENCE DU WEB,"La Turbine, 32 Bd du Port",Cergy,95000,FR,Oui,"La Turbine, 32 Bd du Port, 95000 Cergy",https://monagenceduweb.com/,09 70 44 08 64,https://www.google.com/maps/place/MON+AGENCE+DU+WEB/data=!4m7!3m6!1s0x47e6f53a51eca93f:0xdfb2d9a4fb1df99b!8m2!3d49.0325748!4d2.0658304!16s%2Fg%2F11dz_pt92c!19sChIJP6nsUTr15kcRm_kd-6TZst8?authuser=0&hl=fr&rclk=1,https://www.google.com/maps/place/MON+AGENCE+DU+WEB/data=!4m7!3m6!1s0x47e6f53a51eca93f:0xdfb2d9a4fb1df99b!8m2!3d49.0325748!4d2.0658304!16s%2Fg%2F11dz_pt92c!19sChIJP6nsUTr15kcRm_kd-6TZst8
bonjour@nyuton.fr,Nyutōn - Agence communication et stratégie digitale,Service de marketing Internet,118059416687658515242,Nyutōn - Agence communication et stratégie digitale,196 Grande Rue,Oullins,69600,FR,Non,"196 Grande Rue, 69600 Oullins",https://nyuton.fr/,06 73 53 17 67,https://www.google.com/maps/place/Nyut%C5%8Dn+-+Agence+communication+et+strat%C3%A9gie+digitale/data=!4m7!3m6!1s0x47f4e96bc4f26483:0x8d6d9cf5e285173f!8m2!3d45.7122928!4d4.8029715!16s%2Fg%2F11vk2qzzzm!19sChIJg2TyxGvp9EcRPxeF4vWcbY0?authuser=0&hl=fr&rclk=1,https://www.google.com/maps/place/Nyut%C5%8Dn+-+Agence+communication+et+strat%C3%A9gie+digitale/data=!4m7!3m6!1s0x47f4e96bc4f26483:0x8d6d9cf5e285173f!8m2!3d45.7122928!4d4.8029715!16s%2Fg%2F11vk2qzzzm!19sChIJg2TyxGvp9EcRPxeF4vWcbY0
support@superdata.fr,Cipherr,Service de marketing Internet,101155960525533673416,Cipherr,254 Rue Vendôme,Lyon,69003,FR,Non,"254 Rue Vendôme, 69003 Lyon",https://superdata.fr/,06 75 06 03 11,https://www.google.com/maps/place/Cipherr/data=!4m7!3m6!1s0x12b6a58f6f6a7ead:0xcb17023d93860700!8m2!3d45.757237!4d4.8470388!16s%2Fg%2F11jk2nl8n5!19sChIJrX5qb4-lthIRAAeGkz0CF8s?authuser=0&hl=fr&rclk=1,https://www.google.com/maps/place/Cipherr/data=!4m7!3m6!1s0x12b6a58f6f6a7ead:0xcb17023d93860700!8m2!3d45.757237!4d4.8470388!16s%2Fg%2F11jk2nl8n5!19sChIJrX5qb4-lthIRAAeGkz0CF8s
alexandre.steneck@zol.fr,ZOL,Concepteur de sites Web,,ZOL,22 Rue Robert,Lyon,69006,FR,Non,"22 Rue Robert, 69006 Lyon",http://www.zol.fr/,04 28 29 52 36,https://www.google.com/maps/place/ZOL/data=!4m7!3m6!1s0x47f4ea560a3dea99:0x223f3bc9efc29162!8m2!3d45.7640854!4d4.8479703!16s%2Fg%2F1tvt9pxk!19sChIJmeo9Clbq9EcRYpHC78k7PyI?authuser=0&hl=fr&rclk=1,https://www.google.com/maps/place/ZOL/data=!4m7!3m6!1s0x47f4ea560a3dea99:0x223f3bc9efc29162!8m2!3d45.7640854!4d4.8479703!16s%2Fg%2F1tvt9pxk!19sChIJmeo9Clbq9EcRYpHC78k7PyI
bonjour@zol.fr,ZOL,Concepteur de sites Web,,ZOL,22 Rue Robert,Lyon,69006,FR,Non,"22 Rue Robert, 69006 Lyon",http://www.zol.fr/,04 28 29 52 36,https://www.google.com/maps/place/ZOL/data=!4m7!3m6!1s0x47f4ea560a3dea99:0x223f3bc9efc29162!8m2!3d45.7640854!4d4.8479703!16s%2Fg%2F1tvt9pxk!19sChIJmeo9Clbq9EcRYpHC78k7PyI?authuser=0&hl=fr&rclk=1,https://www.google.com/maps/place/ZOL/data=!4m7!3m6!1s0x47f4ea560a3dea99:0x223f3bc9efc29162!8m2!3d45.7640854!4d4.8479703!16s%2Fg%2F1tvt9pxk!19sChIJmeo9Clbq9EcRYpHC78k7PyI
contact@agillia.fr,"Agillia - Agence web & e-commerce à Lyon - Expert Prestashop, Magento, Wordpress",Agence e-commerce,100952529496226967214,"Agillia - Agence web & e-commerce à Lyon - Expert Prestashop, Magento, Wordpress",26 Rue Berjon,Lyon,69009,FR,Oui,"26 Rue Berjon, 69009 Lyon",https://www.agillia.fr/,04 84 25 80 68,"https://www.google.com/maps/place/Agillia+-+Agence+web+%26+e-commerce+%C3%A0+Lyon+-+Expert+Prestashop,+Magento,+Wordpress/data=!4m7!3m6!1s0x47f4eb6e8e41c27b:0xad01fd98019e83a1!8m2!3d45.7771652!4d4.7982367!16s%2Fg%2F11bbt28yqc!19sChIJe8JBjm7r9EcRoYOeAZj9Aa0?authuser=0&hl=fr&rclk=1","https://www.google.com/maps/place/Agillia+-+Agence+web+%26+e-commerce+%C3%A0+Lyon+-+Expert+Prestashop,+Magento,+Wordpress/data=!4m7!3m6!1s0x47f4eb6e8e41c27b:0xad01fd98019e83a1!8m2!3d45.7771652!4d4.7982367!16s%2Fg%2F11bbt28yqc!19sChIJe8JBjm7r9EcRoYOeAZj9Aa0"
contact@pilot-in.com,Pilot'in - agence WordPress,Concepteur de sites Web,109748716105405785168,Pilot'in - agence WordPress,15 Rue Cavenne,Lyon,69007,FR,Non,"15 Rue Cavenne, 69007 Lyon",https://www.pilot-in.com/,04 82 53 74 30,https://www.google.com/maps/place/Pilot%27in+-+agence+WordPress/data=!4m7!3m6!1s0x47f4eaff3069bb11:0xaae54e2cd10c4063!8m2!3d45.7537678!4d4.8395626!16s%2Fg%2F11bw5szsbx!19sChIJEbtpMP_q9EcRY0AM0SxO5ao?authuser=0&hl=fr&rclk=1,https://www.google.com/maps/place/Pilot%27in+-+agence+WordPress/data=!4m7!3m6!1s0x47f4eaff3069bb11:0xaae54e2cd10c4063!8m2!3d45.7537678!4d4.8395626!16s%2Fg%2F11bw5szsbx!19sChIJEbtpMP_q9EcRY0AM0SxO5ao
wilevan.mesnard@linkeo.com,Agence Web Linkeo Lyon,Concepteur de sites Web,104954847294208643611,Agence Web Linkeo Lyon,26 Rue Bellecordière,Lyon,69002,FR,Non,"26 Rue Bellecordière, 69002 Lyon",http://www.linkeo-lyon.com/,09 74 56 69 69,https://www.google.com/maps/place/Agence+Web+Linkeo+Lyon/data=!4m7!3m6!1s0x47f4ea513ef868a7:0x1bb038cfb6c1d5b6!8m2!3d45.75807!4d4.835437!16s%2Fg%2F11gbf8q43z!19sChIJp2j4PlHq9EcRttXBts84sBs?authuser=0&hl=fr&rclk=1,https://www.google.com/maps/place/Agence+Web+Linkeo+Lyon/data=!4m7!3m6!1s0x47f4ea513ef868a7:0x1bb038cfb6c1d5b6!8m2!3d45.75807!4d4.835437!16s%2Fg%2F11gbf8q43z!19sChIJp2j4PlHq9EcRttXBts84sBs
projet@digital-cover.fr,Digital Cover,Concepteur de sites Web,102546318340460922002,Digital Cover,4 bis Rue Jarente,Lyon,69002,FR,Non,"4 bis Rue Jarente, 69002 Lyon",https://digital-cover.fr/,04 72 32 11 97,https://www.google.com/maps/place/Digital+Cover/data=!4m7!3m6!1s0x47f4eb6581c78ed5:0x3721bd3c32451421!8m2!3d45.7543932!4d4.8272783!16s%2Fg%2F1jkyf6vf4!19sChIJ1Y7HgWXr9EcRIRRFMjy9ITc?authuser=0&hl=fr&rclk=1,https://www.google.com/maps/place/Digital+Cover/data=!4m7!3m6!1s0x47f4eb6581c78ed5:0x3721bd3c32451421!8m2!3d45.7543932!4d4.8272783!16s%2Fg%2F1jkyf6vf4!19sChIJ1Y7HgWXr9EcRIRRFMjy9ITc
contact@digital-cover.fr,Digital Cover,Concepteur de sites Web,102546318340460922002,Digital Cover,4 bis Rue Jarente,Lyon,69002,FR,Non,"4 bis Rue Jarente, 69002 Lyon",https://digital-cover.fr/,04 72 32 11 97,https://www.google.com/maps/place/Digital+Cover/data=!4m7!3m6!1s0x47f4eb6581c78ed5:0x3721bd3c32451421!8m2!3d45.7543932!4d4.8272783!16s%2Fg%2F1jkyf6vf4!19sChIJ1Y7HgWXr9EcRIRRFMjy9ITc?authuser=0&hl=fr&rclk=1,https://www.google.com/maps/place/Digital+Cover/data=!4m7!3m6!1s0x47f4eb6581c78ed5:0x3721bd3c32451421!8m2!3d45.7543932!4d4.8272783!16s%2Fg%2F1jkyf6vf4!19sChIJ1Y7HgWXr9EcRIRRFMjy9ITc
contact@evolyon.fr,Evolyon,Concepteur de sites Web,105284544707992489133,Evolyon,51 Rue Léon Jouhaux,Lyon,69003,FR,Oui,"51 Rue Léon Jouhaux, 69003 Lyon",https://www.evolyon.fr/,04 37 57 38 97,https://www.google.com/maps/place/Evolyon/data=!4m7!3m6!1s0x47f4ea667b3d128f:0x65961891fa03e80a!8m2!3d45.7555624!4d4.8543104!16s%2Fg%2F11c38g6mn0!19sChIJjxI9e2bq9EcRCugD-pEYlmU?authuser=0&hl=fr&rclk=1,https://www.google.com/maps/place/Evolyon/data=!4m7!3m6!1s0x47f4ea667b3d128f:0x65961891fa03e80a!8m2!3d45.7555624!4d4.8543104!16s%2Fg%2F11c38g6mn0!19sChIJjxI9e2bq9EcRCugD-pEYlmU
contact@naratys.com,Naratys - ex 69pixl,Concepteur de sites Web,106373156656223017246,Naratys - ex 69pixl,6 Cr Lafayette,Lyon,69003,FR,Non,"6 Cr Lafayette, 69003 Lyon",https://naratys.com/#utm_medium=organic&utm_source=google&utm_campaign=gmb&utm_content=site,,https://www.google.com/maps/place/Naratys+-+ex+69pixl/data=!4m7!3m6!1s0x47f4eaf90cc26bfb:0xe38bdde119cc8b37!8m2!3d45.763447!4d4.842417!16s%2Fg%2F11bw2k2f_f!19sChIJ-2vCDPnq9EcRN4vMGeHdi-M?authuser=0&hl=fr&rclk=1,https://www.google.com/maps/place/Naratys+-+ex+69pixl/data=!4m7!3m6!1s0x47f4eaf90cc26bfb:0xe38bdde119cc8b37!8m2!3d45.763447!4d4.842417!16s%2Fg%2F11bw2k2f_f!19sChIJ-2vCDPnq9EcRN4vMGeHdi-M
contact@arobases.fr,Arobases - Agence Web & Ecommerce,Concepteur de sites Web,114718097558805454087,Arobases - Agence Web & Ecommerce,54 Rue Chevreul,Lyon,69007,FR,Oui,"54 Rue Chevreul, 69007 Lyon",https://www.arobases.fr/,04 72 79 41 75,https://www.google.com/maps/place/Arobases+-+Agence+Web+%26+Ecommerce/data=!4m7!3m6!1s0x47f4c7bf407cbaaf:0xa2b6bdf728020fa0!8m2!3d45.7474184!4d4.8424403!16s%2Fg%2F1v_smld5!19sChIJr7p8QL_H9EcRoA8CKPe9tqI?authuser=0&hl=fr&rclk=1,https://www.google.com/maps/place/Arobases+-+Agence+Web+%26+Ecommerce/data=!4m7!3m6!1s0x47f4c7bf407cbaaf:0xa2b6bdf728020fa0!8m2!3d45.7474184!4d4.8424403!16s%2Fg%2F1v_smld5!19sChIJr7p8QL_H9EcRoA8CKPe9tqI
